{
  "norad_id": 60098,
  "name": "STARLINK-32026",
  "history": [
    {
      "epoch": "2026-03-28T20:55:02.746848",
      "apogee_km": 476.06131399066635,
      "perigee_km": 474.42527504675945,
      "latitude_deg": 44.45820122040281,
      "longitude_deg": -86.53028127993457,
      "semi_major_axis_km": 6853.380294518713,
      "eccentricity": 0.00011936,
      "inclination_deg": 53.1605,
      "raan_deg": 308.0014,
      "arg_perigee_deg": 92.1311,
      "mean_anomaly_deg": 267.9827,
      "mean_motion_rev_day": 15.30190547
    }
  ]
}